[
    {
        "Altitude(m)": 604221.2162679023,
        "Argument of Periapsis(deg)": 0.0,
        "Eccentricity": 0.0,
        "Inclination(deg)": 60.0,
        "Latitude(deg)": 14.117313947928052,
        "Longitude(deg)": 168.33417393963958,
        "Mean Anomaly(deg)": 16.363599999999984,
        "RAAN(deg)": 260.0,
        "Satellite Name": "Test1 1145",
        "Satellite Number": 1145,
        "Semi-Major Axis(m)": 6980739.136638005,
        "Time(s)": 0
    },
    {
        "Altitude(m)": 604235.3575194861,
        "Argument of Periapsis(deg)": 0.00010418945913296404,
        "Eccentricity": 0.0,
        "Inclination(deg)": 60.0,
        "Latitude(deg)": 14.651710299371437,
        "Longitude(deg)": 168.62262176817825,
        "Mean Anomaly(deg)": 16.983706145461838,
        "RAAN(deg)": 259.99957995086027,
        "Satellite Name": "Test1 1145",
        "Satellite Number": 1145,
        "Semi-Major Axis(m)": 6980739.136638005,
        "Time(s)": 10
    }
]